{"fetched_at":"2026-07-08T07:03:36.533Z","source":"https://celestrak.org/NORAD/elements/gp.php?GROUP=planet&FORMAT=JSON","constellation":"superdove","records":[{"OBJECT_NAME":"FLOCK 4BE-17","OBJECT_ID":"2024-149AA","EPOCH":"2026-07-07T18:03:40.981824","CLASSIFICATION_TYPE":"U","MEAN_MOTION":15.40413939,"ECCENTRICITY":0.0003871,"INCLINATION":97.3763,"RA_OF_ASC_NODE":272.2915,"ARG_OF_PERICENTER":165.6669,"MEAN_ANOMALY":194.4688,"EPHEMERIS_TYPE":0,"NORAD_CAT_ID":60492,"ELEMENT_SET_NO":999,"REV_AT_EPOCH":10542,"BSTAR":0.00027024,"MEAN_MOTION_DOT":0.0001085,"MEAN_MOTION_DDOT":0},{"OBJECT_NAME":"FLOCK 4BE-22","OBJECT_ID":"2024-149AC","EPOCH":"2026-07-07T18:43:48.921312","CLASSIFICATION_TYPE":"U","MEAN_MOTION":15.41823095,"ECCENTRICITY":0.0004193,"INCLINATION":97.3725,"RA_OF_ASC_NODE":272.5445,"ARG_OF_PERICENTER":175.4124,"MEAN_ANOMALY":184.7162,"EPHEMERIS_TYPE":0,"NORAD_CAT_ID":60494,"ELEMENT_SET_NO":999,"REV_AT_EPOCH":10547,"BSTAR":0.0002905,"MEAN_MOTION_DOT":0.00012231,"MEAN_MOTION_DDOT":0},{"OBJECT_NAME":"FLOCK 4BE-34","OBJECT_ID":"2024-149AD","EPOCH":"2026-07-07T17:35:24.868608","CLASSIFICATION_TYPE":"U","MEAN_MOTION":15.41790138,"ECCENTRICITY":0.0004112,"INCLINATION":97.3776,"RA_OF_ASC_NODE":273.3318,"ARG_OF_PERICENTER":182.7905,"MEAN_ANOMALY":177.332,"EPHEMERIS_TYPE":0,"NORAD_CAT_ID":60495,"ELEMENT_SET_NO":999,"REV_AT_EPOCH":10549,"BSTAR":0.00027087,"MEAN_MOTION_DOT":0.00011385,"MEAN_MOTION_DDOT":0},{"OBJECT_NAME":"FLOCK 4BE-32","OBJECT_ID":"2024-149AF","EPOCH":"2026-07-07T18:03:29.026656","CLASSIFICATION_TYPE":"U","MEAN_MOTION":15.42898146,"ECCENTRICITY":0.0004325,"INCLINATION":97.3711,"RA_OF_ASC_NODE":272.9111,"ARG_OF_PERICENTER":180.8811,"MEAN_ANOMALY":179.243,"EPHEMERIS_TYPE":0,"NORAD_CAT_ID":60497,"ELEMENT_SET_NO":999,"REV_AT_EPOCH":10550,"BSTAR":0.0002809,"MEAN_MOTION_DOT":0.00012258,"MEAN_MOTION_DDOT":0},{"OBJECT_NAME":"FLOCK 4BE-11","OBJECT_ID":"2024-149AK","EPOCH":"2026-07-07T19:13:32.657088","CLASSIFICATION_TYPE":"U","MEAN_MOTION":15.43691986,"ECCENTRICITY":0.0004404,"INCLINATION":97.3691,"RA_OF_ASC_NODE":273.2099,"ARG_OF_PERICENTER":179.601,"MEAN_ANOMALY":180.5242,"EPHEMERIS_TYPE":0,"NORAD_CAT_ID":60501,"ELEMENT_SET_NO":999,"REV_AT_EPOCH":10553,"BSTAR":0.00027773,"MEAN_MOTION_DOT":0.00012447,"MEAN_MOTION_DDOT":0},{"OBJECT_NAME":"FLOCK 4BE-24","OBJECT_ID":"2024-149AP","EPOCH":"2026-07-07T17:18:10.899936","CLASSIFICATION_TYPE":"U","MEAN_MOTION":15.43889466,"ECCENTRICITY":0.0004417,"INCLINATION":97.3707,"RA_OF_ASC_NODE":273.3935,"ARG_OF_PERICENTER":193.1566,"MEAN_ANOMALY":166.9568,"EPHEMERIS_TYPE":0,"NORAD_CAT_ID":60505,"ELEMENT_SET_NO":999,"REV_AT_EPOCH":10553,"BSTAR":0.00032481,"MEAN_MOTION_DOT":0.00014674,"MEAN_MOTION_DDOT":0},{"OBJECT_NAME":"FLOCK 4BE-29","OBJECT_ID":"2024-149AT","EPOCH":"2026-07-07T18:47:08.780064","CLASSIFICATION_TYPE":"U","MEAN_MOTION":15.45016388,"ECCENTRICITY":0.0002936,"INCLINATION":97.3802,"RA_OF_ASC_NODE":274.9755,"ARG_OF_PERICENTER":195.4249,"MEAN_ANOMALY":164.691,"EPHEMERIS_TYPE":0,"NORAD_CAT_ID":60509,"ELEMENT_SET_NO":999,"REV_AT_EPOCH":10559,"BSTAR":0.00068032,"MEAN_MOTION_DOT":0.00032095,"MEAN_MOTION_DDOT":0},{"OBJECT_NAME":"FLOCK 4BE-2","OBJECT_ID":"2024-149AV","EPOCH":"2026-07-07T19:05:24.661248","CLASSIFICATION_TYPE":"U","MEAN_MOTION":15.55192203,"ECCENTRICITY":0.000493,"INCLINATION":97.3821,"RA_OF_ASC_NODE":276.7131,"ARG_OF_PERICENTER":193.2138,"MEAN_ANOMALY":166.8987,"EPHEMERIS_TYPE":0,"NORAD_CAT_ID":60511,"ELEMENT_SET_NO":999,"REV_AT_EPOCH":10570,"BSTAR":0.00069026,"MEAN_MOTION_DOT":0.00046723,"MEAN_MOTION_DDOT":0},{"OBJECT_NAME":"FLOCK 4BE-13","OBJECT_ID":"2024-149AW","EPOCH":"2026-07-07T17:23:54.296736","CLASSIFICATION_TYPE":"U","MEAN_MOTION":15.42467833,"ECCENTRICITY":0.0004505,"INCLINATION":97.3713,"RA_OF_ASC_NODE":273.357,"ARG_OF_PERICENTER":178.2656,"MEAN_ANOMALY":181.8608,"EPHEMERIS_TYPE":0,"NORAD_CAT_ID":60512,"ELEMENT_SET_NO":999,"REV_AT_EPOCH":10553,"BSTAR":0.00024135,"MEAN_MOTION_DOT":0.00010367,"MEAN_MOTION_DDOT":0},{"OBJECT_NAME":"FLOCK 4BE-27","OBJECT_ID":"2024-149AX","EPOCH":"2026-07-07T19:10:48.109152","CLASSIFICATION_TYPE":"U","MEAN_MOTION":15.34825523,"ECCENTRICITY":0.000317,"INCLINATION":97.3818,"RA_OF_ASC_NODE":270.6643,"ARG_OF_PERICENTER":209.5219,"MEAN_ANOMALY":150.5846,"EPHEMERIS_TYPE":0,"NORAD_CAT_ID":60513,"ELEMENT_SET_NO":999,"REV_AT_EPOCH":10530,"BSTAR":0.00019867,"MEAN_MOTION_DOT":0.00006628,"MEAN_MOTION_DDOT":0},{"OBJECT_NAME":"FLOCK 4BE-9","OBJECT_ID":"2024-149AY","EPOCH":"2026-07-07T17:43:01.802784","CLASSIFICATION_TYPE":"U","MEAN_MOTION":15.4143805,"ECCENTRICITY":0.000298,"INCLINATION":97.3784,"RA_OF_ASC_NODE":273.217,"ARG_OF_PERICENTER":192.5638,"MEAN_ANOMALY":167.5535,"EPHEMERIS_TYPE":0,"NORAD_CAT_ID":60514,"ELEMENT_SET_NO":999,"REV_AT_EPOCH":10548,"BSTAR":0.00026835,"MEAN_MOTION_DOT":0.00011145,"MEAN_MOTION_DDOT":0},{"OBJECT_NAME":"FLOCK 4BE-6","OBJECT_ID":"2024-149BA","EPOCH":"2026-07-07T17:14:45.146112","CLASSIFICATION_TYPE":"U","MEAN_MOTION":15.40170215,"ECCENTRICITY":0.0003595,"INCLINATION":97.3783,"RA_OF_ASC_NODE":272.5162,"ARG_OF_PERICENTER":196.5039,"MEAN_ANOMALY":163.6091,"EPHEMERIS_TYPE":0,"NORAD_CAT_ID":60516,"ELEMENT_SET_NO":999,"REV_AT_EPOCH":10543,"BSTAR":0.00026406,"MEAN_MOTION_DOT":0.00010514,"MEAN_MOTION_DDOT":0},{"OBJECT_NAME":"FLOCK 4BE-14","OBJECT_ID":"2024-149BB","EPOCH":"2026-07-07T17:56:49.200288","CLASSIFICATION_TYPE":"U","MEAN_MOTION":15.41681927,"ECCENTRICITY":0.0004586,"INCLINATION":97.3687,"RA_OF_ASC_NODE":272.7009,"ARG_OF_PERICENTER":201.2982,"MEAN_ANOMALY":158.8075,"EPHEMERIS_TYPE":0,"NORAD_CAT_ID":60517,"ELEMENT_SET_NO":999,"REV_AT_EPOCH":10549,"BSTAR":0.00026952,"MEAN_MOTION_DOT":0.00011287,"MEAN_MOTION_DDOT":0},{"OBJECT_NAME":"FLOCK 4BE-1","OBJECT_ID":"2024-149BC","EPOCH":"2026-07-07T17:48:38.335968","CLASSIFICATION_TYPE":"U","MEAN_MOTION":15.43326117,"ECCENTRICITY":0.0004331,"INCLINATION":97.3771,"RA_OF_ASC_NODE":274.0471,"ARG_OF_PERICENTER":201.0324,"MEAN_ANOMALY":159.0746,"EPHEMERIS_TYPE":0,"NORAD_CAT_ID":60518,"ELEMENT_SET_NO":999,"REV_AT_EPOCH":10554,"BSTAR":0.00027922,"MEAN_MOTION_DOT":0.00012361,"MEAN_MOTION_DDOT":0},{"OBJECT_NAME":"FLOCK 4BE-28","OBJECT_ID":"2024-149BD","EPOCH":"2026-07-06T05:40:18.369408","CLASSIFICATION_TYPE":"U","MEAN_MOTION":15.45698118,"ECCENTRICITY":0.00041881,"INCLINATION":97.3771,"RA_OF_ASC_NODE":273.305,"ARG_OF_PERICENTER":219.3554,"MEAN_ANOMALY":140.7391,"EPHEMERIS_TYPE":0,"NORAD_CAT_ID":60519,"ELEMENT_SET_NO":999,"REV_AT_EPOCH":10538,"BSTAR":0.00052926037,"MEAN_MOTION_DOT":0.00025518,"MEAN_MOTION_DDOT":0},{"OBJECT_NAME":"FLOCK 4BE-5","OBJECT_ID":"2024-149CV","EPOCH":"2026-07-07T17:56:07.984032","CLASSIFICATION_TYPE":"U","MEAN_MOTION":15.40891427,"ECCENTRICITY":0.0003307,"INCLINATION":97.3834,"RA_OF_ASC_NODE":272.9528,"ARG_OF_PERICENTER":194.5389,"MEAN_ANOMALY":165.5762,"EPHEMERIS_TYPE":0,"NORAD_CAT_ID":60559,"ELEMENT_SET_NO":999,"REV_AT_EPOCH":10544,"BSTAR":0.00026219,"MEAN_MOTION_DOT":0.00010691,"MEAN_MOTION_DDOT":0}]}
