FLOCK 4BE-17            
1 60492U 24149AA  26188.75255766  .00010850  00000+0  27024-3 0  9990
2 60492  97.3763 272.2915 0003871 165.6669 194.4688 15.40413939105425
FLOCK 4BE-22            
1 60494U 24149AC  26188.78042733  .00012231  00000+0  29050-3 0  9999
2 60494  97.3725 272.5445 0004193 175.4124 184.7162 15.41823095105472
FLOCK 4BE-34            
1 60495U 24149AD  26188.73292672  .00011385  00000+0  27087-3 0  9991
2 60495  97.3776 273.3318 0004112 182.7905 177.3320 15.41790138105493
FLOCK 4BE-32            
1 60497U 24149AF  26188.75241929  .00012258  00000+0  28090-3 0  9999
2 60497  97.3711 272.9111 0004325 180.8811 179.2430 15.42898146105505
FLOCK 4BE-11            
1 60501U 24149AK  26188.80107242  .00012447  00000+0  27773-3 0  9997
2 60501  97.3691 273.2099 0004404 179.6010 180.5242 15.43691986105535
FLOCK 4BE-24            
1 60505U 24149AP  26188.72095949  .00014674  00000+0  32481-3 0  9998
2 60505  97.3707 273.3935 0004417 193.1566 166.9568 15.43889466105539
FLOCK 4BE-29            
1 60509U 24149AT  26188.78274051  .00032095  00000+0  68032-3 0  9999
2 60509  97.3802 274.9755 0002936 195.4249 164.6910 15.45016388105592
FLOCK 4BE-2             
1 60511U 24149AV  26188.79542432  .00046723  00000+0  69026-3 0  9991
2 60511  97.3821 276.7131 0004930 193.2138 166.8987 15.55192203105706
FLOCK 4BE-13            
1 60512U 24149AW  26188.72493399  .00010367  00000+0  24135-3 0  9999
2 60512  97.3713 273.3570 0004505 178.2656 181.8608 15.42467833105531
FLOCK 4BE-27            
1 60513U 24149AX  26188.79916793  .00006628  00000+0  19867-3 0  9996
2 60513  97.3818 270.6643 0003170 209.5219 150.5846 15.34825523105306
FLOCK 4BE-9             
1 60514U 24149AY  26188.73821531  .00011145  00000+0  26835-3 0  9999
2 60514  97.3784 273.2170 0002980 192.5638 167.5535 15.41438050105482
FLOCK 4BE-6             
1 60516U 24149BA  26188.71857808  .00010514  00000+0  26406-3 0  9998
2 60516  97.3783 272.5162 0003595 196.5039 163.6091 15.40170215105432
FLOCK 4BE-14            
1 60517U 24149BB  26188.74779167  .00011287  00000+0  26952-3 0  9997
2 60517  97.3687 272.7009 0004586 201.2982 158.8075 15.41681927105492
FLOCK 4BE-1             
1 60518U 24149BC  26188.74211037  .00012361  00000+0  27922-3 0  9997
2 60518  97.3771 274.0471 0004331 201.0324 159.0746 15.43326117105544
FLOCK 4BE-28            
1 60519U 24149BD  26187.23632372  .00025518  00000+0  52926-3 0  9990
2 60519  97.3771 273.3050 0004188 219.3554 140.7391 15.45698118105387
FLOCK 4BE-5             
1 60559U 24149CV  26188.74731463  .00010691  00000+0  26219-3 0  9994
2 60559  97.3834 272.9528 0003307 194.5389 165.5762 15.40891427105445
